[Satellite]
VERSION=1.1
NAME=AALTO-1
NICKNAME=AALTO-1
TLE1=1 42775U 17036L   19317.71146540  .00000754  00000-0  36410-4 0  9995
TLE2=2 42775  97.3313  10.8249 0015434  64.3583 295.9246 15.21527154132717
STATUS=0
